STARLINK-1043           
1 44748U 19074AM  25237.56506250  .00002210  00000+0  16716-3 0  9994
2 44748  53.0551  27.0586 0001195  80.3794 279.7330 15.06402471318635
STARLINK-1046           
1 44751U 19074AQ  25237.57980841  .00001295  00000+0  10581-3 0  9997
2 44751  53.0575  26.9939 0001220  91.6799 268.4329 15.06404112318631
STARLINK-1047           
1 44752U 19074AR  25237.59590014  .00005874  00000+0  23189-3 0  9994
2 44752  53.0744 338.4846 0002976 346.5312  13.5607 15.26941825319324
STARLINK-1048           
1 44753U 19074AS  25237.53925644 -.00003170  00000+0 -19408-3 0  9998
2 44753  53.0561 347.1750 0001331  89.0673 271.0469 15.06385288319180
STARLINK-1053           
1 44758U 19074AX  25237.49884977  .00028123  00000+0  45028-3 0  9991
2 44758  53.0448 329.5141 0001773   9.4415 350.6627 15.52921259319441
STARLINK-1054           
1 44759U 19074AY  25237.58336806  .00145825  00000+0  19711-2 0  9993
2 44759  53.0504   0.1282 0006813 253.6386 327.4044 15.56754362  5814
STARLINK-1056           
1 44761U 19074BA  25237.58336806  .00123077  00000+0  10542-2 0  9994
2 44761  53.0489 351.8279 0009117 298.4617 126.5279 15.68518064  6005
STARLINK-1057           
1 44762U 19074BB  25237.58336806  .00126471  00000+0  61924-3 0  9997
2 44762  53.0496 325.6777 0006287 277.4486 307.3310 15.81390048  6024
STARLINK-1060           
1 44765U 19074BE  25237.62218986 -.00000675  00000+0 -26391-4 0  9992
2 44765  53.0569   6.7982 0001242 111.5749 248.5372 15.06407803318912
STARLINK-1063           
1 44768U 19074BH  25237.56873805 -.00000196  00000+0  57141-5 0  9990
2 44768  53.0570  27.0398 0001351  69.0040 291.1094 15.06406860318643
STARLINK-1067           
1 44771U 19074BL  25237.62403577  .00001549  00000+0  12285-3 0  9996
2 44771  53.0565  26.7924 0001349  93.6118 266.5025 15.06401263318640
STARLINK-1068           
1 44772U 19074BM  25237.61481578 -.00000133  00000+0  99896-5 0  9997
2 44772  53.0558   6.8376 0001118  90.9940 269.1177 15.06405131318915
STARLINK-1098           
1 44917U 20001D   25237.58336806  .00304402  48863-4  66337-3 0  9990
2 44917  53.0443  99.6216 0004120  47.3667 299.0988 15.97769841  6052
STARLINK-1104           
1 44922U 20001J   25237.58336806  .00362849  65801-4  75420-3 0  9999
2 44922  53.0455 100.7542 0004721  80.1802 328.9964 15.98580812  5910
STARLINK-1112           
1 44925U 20001M   25237.12005435  .00057385  00000+0  13066-2 0  9991
2 44925  53.0516 126.6560 0008030  61.0217 299.1591 15.42395887310530
STARLINK-1114           
1 44927U 20001P   25237.18910254 -.00000542  00000+0 -17509-4 0  9996
2 44927  53.0554 148.7459 0001399  94.6633 265.4516 15.06394020310239
