[{"OBJECT_NAME":"STARLINK-1043","OBJECT_ID":"2019-074AM","EPOCH":"2025-08-25T13:33:41.400000","MEAN_MOTION":15.06402471,"ECCENTRICITY":0.00011954,"INCLINATION":53.0551,"RA_OF_ASC_NODE":27.0586,"ARG_OF_PERICENTER":80.3794,"MEAN_ANOMALY":279.733,"EPHEMERIS_TYPE":0,"CLASSIFICATION_TYPE":"U","NORAD_CAT_ID":44748,"ELEMENT_SET_NO":999,"REV_AT_EPOCH":31863,"BSTAR":0.00016716496,"MEAN_MOTION_DOT":2.21e-5,"MEAN_MOTION_DDOT":0},{"OBJECT_NAME":"STARLINK-1046","OBJECT_ID":"2019-074AQ","EPOCH":"2025-08-25T13:54:55.446624","MEAN_MOTION":15.06404112,"ECCENTRICITY":0.00012204,"INCLINATION":53.0575,"RA_OF_ASC_NODE":26.9939,"ARG_OF_PERICENTER":91.6799,"MEAN_ANOMALY":268.4329,"EPHEMERIS_TYPE":0,"CLASSIFICATION_TYPE":"U","NORAD_CAT_ID":44751,"ELEMENT_SET_NO":999,"REV_AT_EPOCH":31863,"BSTAR":0.00010580963,"MEAN_MOTION_DOT":1.295e-5,"MEAN_MOTION_DDOT":0},{"OBJECT_NAME":"STARLINK-1047","OBJECT_ID":"2019-074AR","EPOCH":"2025-08-25T14:18:05.772096","MEAN_MOTION":15.26941825,"ECCENTRICITY":0.00029768,"INCLINATION":53.0744,"RA_OF_ASC_NODE":338.4846,"ARG_OF_PERICENTER":346.5312,"MEAN_ANOMALY":13.5607,"EPHEMERIS_TYPE":0,"CLASSIFICATION_TYPE":"U","NORAD_CAT_ID":44752,"ELEMENT_SET_NO":999,"REV_AT_EPOCH":31932,"BSTAR":0.0002318908,"MEAN_MOTION_DOT":5.874e-5,"MEAN_MOTION_DDOT":0},{"OBJECT_NAME":"STARLINK-1048","OBJECT_ID":"2019-074AS","EPOCH":"2025-08-25T12:56:31.756416","MEAN_MOTION":15.06385288,"ECCENTRICITY":0.00013317,"INCLINATION":53.0561,"RA_OF_ASC_NODE":347.175,"ARG_OF_PERICENTER":89.0673,"MEAN_ANOMALY":271.0469,"EPHEMERIS_TYPE":0,"CLASSIFICATION_TYPE":"U","NORAD_CAT_ID":44753,"ELEMENT_SET_NO":999,"REV_AT_EPOCH":31918,"BSTAR":-0.00019407605,"MEAN_MOTION_DOT":-3.17e-5,"MEAN_MOTION_DDOT":0},{"OBJECT_NAME":"STARLINK-1053","OBJECT_ID":"2019-074AX","EPOCH":"2025-08-25T11:58:20.620128","MEAN_MOTION":15.52921259,"ECCENTRICITY":0.00017738,"INCLINATION":53.0448,"RA_OF_ASC_NODE":329.5141,"ARG_OF_PERICENTER":9.4415,"MEAN_ANOMALY":350.6627,"EPHEMERIS_TYPE":0,"CLASSIFICATION_TYPE":"U","NORAD_CAT_ID":44758,"ELEMENT_SET_NO":999,"REV_AT_EPOCH":31944,"BSTAR":0.00045027633,"MEAN_MOTION_DOT":0.00028123,"MEAN_MOTION_DDOT":0},{"OBJECT_NAME":"STARLINK-1054","OBJECT_ID":"2019-074AY","EPOCH":"2025-08-25T14:00:03.000384","MEAN_MOTION":15.56754362,"ECCENTRICITY":0.00068131,"INCLINATION":53.0504,"RA_OF_ASC_NODE":0.1282,"ARG_OF_PERICENTER":253.6386,"MEAN_ANOMALY":327.4044,"EPHEMERIS_TYPE":0,"CLASSIFICATION_TYPE":"U","NORAD_CAT_ID":44759,"ELEMENT_SET_NO":999,"REV_AT_EPOCH":581,"BSTAR":0.0019710766,"MEAN_MOTION_DOT":0.00145825,"MEAN_MOTION_DDOT":0},{"OBJECT_NAME":"STARLINK-1056","OBJECT_ID":"2019-074BA","EPOCH":"2025-08-25T14:00:03.000384","MEAN_MOTION":15.68518064,"ECCENTRICITY":0.00091175,"INCLINATION":53.0489,"RA_OF_ASC_NODE":351.8279,"ARG_OF_PERICENTER":298.4617,"MEAN_ANOMALY":126.5279,"EPHEMERIS_TYPE":0,"CLASSIFICATION_TYPE":"U","NORAD_CAT_ID":44761,"ELEMENT_SET_NO":999,"REV_AT_EPOCH":600,"BSTAR":0.001054152,"MEAN_MOTION_DOT":0.00123077,"MEAN_MOTION_DDOT":0},{"OBJECT_NAME":"STARLINK-1057","OBJECT_ID":"2019-074BB","EPOCH":"2025-08-25T14:00:03.000384","MEAN_MOTION":15.81390048,"ECCENTRICITY":0.00062878,"INCLINATION":53.0496,"RA_OF_ASC_NODE":325.6777,"ARG_OF_PERICENTER":277.4486,"MEAN_ANOMALY":307.331,"EPHEMERIS_TYPE":0,"CLASSIFICATION_TYPE":"U","NORAD_CAT_ID":44762,"ELEMENT_SET_NO":999,"REV_AT_EPOCH":602,"BSTAR":0.00061924301,"MEAN_MOTION_DOT":0.00126471,"MEAN_MOTION_DDOT":0},{"OBJECT_NAME":"STARLINK-1060","OBJECT_ID":"2019-074BE","EPOCH":"2025-08-25T14:55:57.203904","MEAN_MOTION":15.06407803,"ECCENTRICITY":0.00012428,"INCLINATION":53.0569,"RA_OF_ASC_NODE":6.7982,"ARG_OF_PERICENTER":111.5749,"MEAN_ANOMALY":248.5372,"EPHEMERIS_TYPE":0,"CLASSIFICATION_TYPE":"U","NORAD_CAT_ID":44765,"ELEMENT_SET_NO":999,"REV_AT_EPOCH":31891,"BSTAR":-2.6391017e-5,"MEAN_MOTION_DOT":-6.75e-6,"MEAN_MOTION_DDOT":0},{"OBJECT_NAME":"STARLINK-1063","OBJECT_ID":"2019-074BH","EPOCH":"2025-08-25T13:38:58.967520","MEAN_MOTION":15.0640686,"ECCENTRICITY":0.00013515,"INCLINATION":53.057,"RA_OF_ASC_NODE":27.0398,"ARG_OF_PERICENTER":69.004,"MEAN_ANOMALY":291.1094,"EPHEMERIS_TYPE":0,"CLASSIFICATION_TYPE":"U","NORAD_CAT_ID":44768,"ELEMENT_SET_NO":999,"REV_AT_EPOCH":31864,"BSTAR":5.71411e-6,"MEAN_MOTION_DOT":-1.96e-6,"MEAN_MOTION_DDOT":0},{"OBJECT_NAME":"STARLINK-1067","OBJECT_ID":"2019-074BL","EPOCH":"2025-08-25T14:58:36.690528","MEAN_MOTION":15.06401263,"ECCENTRICITY":0.00013493,"INCLINATION":53.0565,"RA_OF_ASC_NODE":26.7924,"ARG_OF_PERICENTER":93.6118,"MEAN_ANOMALY":266.5025,"EPHEMERIS_TYPE":0,"CLASSIFICATION_TYPE":"U","NORAD_CAT_ID":44771,"ELEMENT_SET_NO":999,"REV_AT_EPOCH":31864,"BSTAR":0.0001228527,"MEAN_MOTION_DOT":1.549e-5,"MEAN_MOTION_DDOT":0},{"OBJECT_NAME":"STARLINK-1068","OBJECT_ID":"2019-074BM","EPOCH":"2025-08-25T14:45:20.083392","MEAN_MOTION":15.06405131,"ECCENTRICITY":0.00011186,"INCLINATION":53.0558,"RA_OF_ASC_NODE":6.8376,"ARG_OF_PERICENTER":90.994,"MEAN_ANOMALY":269.1177,"EPHEMERIS_TYPE":0,"CLASSIFICATION_TYPE":"U","NORAD_CAT_ID":44772,"ELEMENT_SET_NO":999,"REV_AT_EPOCH":31891,"BSTAR":9.989555e-6,"MEAN_MOTION_DOT":-1.33e-6,"MEAN_MOTION_DDOT":0},{"OBJECT_NAME":"STARLINK-1098","OBJECT_ID":"2020-001D","EPOCH":"2025-08-25T14:00:03.000384","MEAN_MOTION":15.97769841,"ECCENTRICITY":0.00041205,"INCLINATION":53.0443,"RA_OF_ASC_NODE":99.6216,"ARG_OF_PERICENTER":47.3667,"MEAN_ANOMALY":299.0988,"EPHEMERIS_TYPE":0,"CLASSIFICATION_TYPE":"U","NORAD_CAT_ID":44917,"ELEMENT_SET_NO":999,"REV_AT_EPOCH":605,"BSTAR":0.00066336908,"MEAN_MOTION_DOT":0.00304402,"MEAN_MOTION_DDOT":4.8862946e-5},{"OBJECT_NAME":"STARLINK-1104","OBJECT_ID":"2020-001J","EPOCH":"2025-08-25T14:00:03.000384","MEAN_MOTION":15.98580812,"ECCENTRICITY":0.00047213,"INCLINATION":53.0455,"RA_OF_ASC_NODE":100.7542,"ARG_OF_PERICENTER":80.1802,"MEAN_ANOMALY":328.9964,"EPHEMERIS_TYPE":0,"CLASSIFICATION_TYPE":"U","NORAD_CAT_ID":44922,"ELEMENT_SET_NO":999,"REV_AT_EPOCH":591,"BSTAR":0.0007541978,"MEAN_MOTION_DOT":0.00362849,"MEAN_MOTION_DDOT":6.5801146e-5},{"OBJECT_NAME":"STARLINK-1112","OBJECT_ID":"2020-001M","EPOCH":"2025-08-25T02:52:52.695840","MEAN_MOTION":15.42395887,"ECCENTRICITY":0.00080303,"INCLINATION":53.0516,"RA_OF_ASC_NODE":126.656,"ARG_OF_PERICENTER":61.0217,"MEAN_ANOMALY":299.1591,"EPHEMERIS_TYPE":0,"CLASSIFICATION_TYPE":"U","NORAD_CAT_ID":44925,"ELEMENT_SET_NO":999,"REV_AT_EPOCH":31053,"BSTAR":0.0013065841,"MEAN_MOTION_DOT":0.00057385,"MEAN_MOTION_DDOT":0},{"OBJECT_NAME":"STARLINK-1114","OBJECT_ID":"2020-001P","EPOCH":"2025-08-25T04:32:18.459456","MEAN_MOTION":15.0639402,"ECCENTRICITY":0.00013994,"INCLINATION":53.0554,"RA_OF_ASC_NODE":148.7459,"ARG_OF_PERICENTER":94.6633,"MEAN_ANOMALY":265.4516,"EPHEMERIS_TYPE":0,"CLASSIFICATION_TYPE":"U","NORAD_CAT_ID":44927,"ELEMENT_SET_NO":999,"REV_AT_EPOCH":31023,"BSTAR":-1.7508837e-5,"MEAN_MOTION_DOT":-5.42e-6,"MEAN_MOTION_DDOT":0}]
